LEMUR-2-ROUNDTRIPPER    
1 62711U 25009DG  26196.16948394  .00004615  00000+0  33632-3 0  9996
2 62711  97.7253 278.8143 0004458  63.8753 296.2931 15.04231838 81835
LEMUR-2-MYNAMEISJEFF    
1 62712U 25009DH  26196.23449186  .00004580  00000+0  33391-3 0  9993
2 62712  97.7302 279.2772 0004062  97.3054 262.8634 15.04223423 81842
LEMUR-2-LEIA-PHILIP     
1 63246U 25052AN  26196.27028868  .00000141  00000+0  17093-4 0  9999
2 63246  97.6805  87.7451 0005095 119.1718 241.0014 14.97391480 72879
LEMUR-2-LIA-MARTIN      
1 63248U 25052AQ  26196.26481194  .00002027  00000+0  17643-3 0  9990
2 63248  97.6869  88.2585 0005299  89.7289 270.4540 14.98030415 72886
LEMUR-2-DELOITTE-1      
1 63259U 25052BB  26196.57931293  .00002441  00000+0  21287-3 0  9995
2 63259  97.6881  88.8983 0002572  64.8549 295.2940 14.97784138 72947
LEMUR-2-EMERSONROSE     
1 63261U 25052BD  26196.52636810  .00002736  00000+0  22890-3 0  9998
2 63261  97.6885  89.4601 0002709  60.0626 300.0865 14.99293057 72986
LEMUR-2-MARACHE-FRAN    
1 63262U 25052BE  26196.21538038  .00001678  00000+0  13855-3 0  9993
2 63262  97.6837  89.5210 0005176 252.2220 107.8439 15.00315354 72963
LEMUR-2-THEFALCONER     
1 63264U 25052BG  26196.27574090  .00001069  00000+0  96508-4 0  9990
2 63264  97.6830  88.1900 0000294 296.3949  63.7243 14.97563100 72896
LEMUR-2-UNTITLED-SC     
1 63351U 25061A   26196.45035078  .00001477  00000+0  85543-4 0  9995
2 63351  97.5653 171.6119 0019259 162.1875 198.0035 15.13647125 71860
LEMUR-2-ESPERANZA       
1 63352U 25061B   26196.42566932  .00001831  00000+0  10486-3 0  9998
2 63352  97.5660 171.6875 0018878 161.4903 198.7019 15.13753018 71866
LEMUR-2-KREMPEL-BRO2    
1 63353U 25061C   26196.51065915  .00001685  00000+0  95631-4 0  9997
2 63353  97.5706 172.3413 0020010 154.2043 206.0190 15.14180171 71891
LEMUR-2-THERMORAPTOR    
1 63354U 25061D   26196.35903960  .00001980  00000+0  11147-3 0  9998
2 63354  97.5711 172.2717 0019746 153.5346 206.6899 15.14262119 71879
LEMUR-2-NEUROSPICY      
1 63355U 25061E   26196.46069048  .00001808  00000+0  10187-3 0  9993
2 63355  97.5639 171.9772 0017510 156.0796 204.1253 15.14381818 71897
LEMUR-2-TILLINFINITY    
1 63356U 25061F   26196.41901102  .00002141  00000+0  11796-3 0  9993
2 63356  97.5625 172.2461 0019099 145.1079 215.1409 15.14965307 71918
LEMUR-2-KREMPEL-BRO1    
1 63357U 25061G   26196.39608870  .00001841  00000+0  10241-3 0  9997
2 63357  97.5625 172.1313 0019710 146.5937 213.6543 15.14772578 71909
LEMUR-2-LANGER2SPACE    
1 63358U 25061H   26196.42825651  .00001918  00000+0  10761-3 0  9992
2 63358  97.5632 171.9659 0017423 154.4155 205.7942 15.14465864 71897
LEMUR-2-BALTO           
1 63395U 25052BH  26196.53320222  .00002634  00000+0  21449-3 0  9990
2 63395  97.6928  89.8234 0005107 326.1448  33.9449 15.00366255 73010
LEMUR-2-KRISH           
1 64561U 25135AK  26196.56158461  .00001916  00000+0  17403-3 0  9992
2 64561  97.7775 311.2495 0001295  95.8991 264.2378 14.96450444 58162
LEMUR-2-HUBBLE-4        
1 64565U 25135AP  26196.54312470  .00000870  00000+0  87612-4 0  9994
2 64565  97.7720 310.1208 0002702 161.1599 198.9721 14.93686751 58109
LEMUR-2-SEJONG-2        
1 64586U 25135BL  26196.51566169  .00002114  00000+0  18923-3 0  9991
2 64586  97.7708 311.3491 0003984 217.2614 142.8331 14.96912919 58183
LEMUR-2-HUBBLE-5        
1 64840U 25135BT  26196.55183665  .00000663  00000+0  67186-4 0  9997
2 64840  97.7741 310.7988 0004336 233.7942 126.2877 14.94214435 58149
LEMUR-2-KARENDARRELL    
1 64841U 25135BU  26196.26314391  .00004076  00000+0  32783-3 0  9994
2 64841  97.7718 312.4344 0012449 104.5453 255.7152 15.00500029 58223
LEMUR-2-LUCILLE-ROSE    
1 65403U 25135BV  26196.57002857  .00003626  00000+0  29210-3 0  9995
2 65403  97.7711 312.7763 0014955 187.7689 172.3306 15.00491915 52892
LEMUR-2-AFFIE-WAUWIE    
1 66295U 25248C   26196.36935946  .00012792  00000+0  46577-3 0  9990
2 66295  45.3887 322.1687 0008766 251.4181 108.5756 15.28256430 38901
OTTER SDM               
1 66678U 25276N   26196.16317339  .00003557  00000+0  16803-3 0  9992
2 66678  97.4206 269.1787 0004295 254.0411 106.0351 15.20056680 34668
LEMUR-2-STAS-GORBUK     
1 66686U 25276W   26196.18459675  .00002841  00000+0  13639-3 0  9992
2 66686  97.4240 269.2517 0003613 248.2139 111.8711 15.19658337 34661
LEMUR-2-TEODOR          
1 66768U 25276DG  26196.20338588  .00003105  00000+0  14174-3 0  9994
2 66768  97.4145 269.5420 0002216  87.9378 272.2111 15.21337341 34706
LEMUR-2-LAILA           
1 66776U 25276DQ  26196.17318585  .00003014  00000+0  13678-3 0  9991
2 66776  97.4169 269.6508 0002924  94.5398 265.6172 15.21563113 34702
LEMUR-2-CELIJO-SB-PK    
1 66781U 25276DW  26196.18488121  .00002627  00000+0  21423-3 0  9998
2 66781  97.5197 266.0383 0007030  64.1114 296.0834 15.00282855 26829
